NORAD_CAT_ID,OBJECT_NAME,OBJECT_TYPE,EPOCH,MEAN_MOTION,ECCENTRICITY,INCLINATION,RA_OF_ASC_NODE,ARG_OF_PERICENTER,MEAN_ANOMALY,BSTAR,MEAN_MOTION_DOT,MEAN_MOTION_DDOT,TLE_LINE0,TLE_LINE1,TLE_LINE2,SEMIMAJOR_AXIS,PERIOD,APOGEE,PERIGEE,DECAYED
49734.0,STARLINK-3238,PAYLOAD,2023-03-21 02:51:28,15.08852813,0.0001046,53.2172,337.9744,78.3412,281.7697,0.00062612,9.694e-05,0.0,0 STARLINK-3238,1 49734U 21115L   23080.11907890  .00009694  00000-0  62612-3 0  9993,2 49734  53.2172 337.9744 0001046  78.3412 281.7697 15.08852813 71809,6917.841,95.437,540.43,538.983,0.0
49734.0,STARLINK-3238,PAYLOAD,2023-03-21 20:20:43,15.08843308,8.93e-05,53.218,334.7036,82.4597,277.6497,0.00025326,3.746e-05,0.0,0 STARLINK-3238,1 49734U 21115L   23080.84772041  .00003746  00000-0  25326-3 0  9994,2 49734  53.2180 334.7036 0000893  82.4597 277.6497 15.08843308 73023,6917.87,95.437,540.353,539.118,0.0
49734.0,STARLINK-3238,PAYLOAD,2023-03-21 21:56:06,15.08846397,0.0001089,53.2174,334.4059,84.3974,275.7142,0.00032434,4.879e-05,0.0,0 STARLINK-3238,1 49734U 21115L   23080.91395994  .00004879  00000-0  32434-3 0  9996,2 49734  53.2174 334.4059 0001089  84.3974 275.7142 15.08846397 71920,6917.861,95.437,540.479,538.972,0.0
49734.0,STARLINK-3238,PAYLOAD,2023-03-22 02:42:15,15.08853056,0.0001065,53.2174,333.5133,85.182,274.9294,0.0005036,7.739e-05,0.0,0 STARLINK-3238,1 49734U 21115L   23081.11267773  .00007739  00000-0  50360-3 0  9998,2 49734  53.2174 333.5133 0001065  85.1820 274.9294 15.08853056 73062,6917.84,95.437,540.442,538.969,0.0
49734.0,STARLINK-3238,PAYLOAD,2023-03-22 20:11:29,15.08845536,0.0001093,53.217,330.2413,86.7116,273.4001,0.00021004,3.057e-05,0.0,0 STARLINK-3238,1 49734U 21115L   23081.84131782  .00003057  00000-0  21004-3 0  9990,2 49734  53.2170 330.2413 0001093  86.7116 273.4001 15.08845536 73175,6917.863,95.437,540.485,538.972,0.0
49734.0,STARLINK-3238,PAYLOAD,2023-03-22 21:46:52,15.08846173,0.000109,53.2172,329.9439,87.9063,272.2054,0.00017681,2.528e-05,0.0,0 STARLINK-3238,1 49734U 21115L   23081.90755728  .00002528  00000-0  17681-3 0  9997,2 49734  53.2172 329.9439 0001090  87.9063 272.2054 15.08846173 72072,6917.862,95.437,540.481,538.972,0.0
49734.0,STARLINK-3238,PAYLOAD,2023-03-23 20:02:17,15.08838108,0.0001054,53.2167,325.7811,85.0687,275.0426,1.7807e-05,-4e-08,0.0,0 STARLINK-3238,1 49734U 21115L   23082.83492066 -.00000004  00000-0  17807-4 0  9992,2 49734  53.2167 325.7811 0001054  85.0687 275.0426 15.08838108 73327,6917.886,95.438,540.48,539.022,0.0
49734.0,STARLINK-3238,PAYLOAD,2023-03-23 21:37:40,15.08839981,0.0001049,53.2166,325.4837,85.7736,274.3376,1.9515e-05,2.3e-07,0.0,0 STARLINK-3238,1 49734U 21115L   23082.90116074  .00000023  00000-0  19515-4 0  9990,2 49734  53.2166 325.4837 0001049  85.7736 274.3376 15.08839981 72221,6917.88,95.438,540.471,539.02,0.0
49734.0,STARLINK-3238,PAYLOAD,2023-03-24 02:23:49,15.08848557,9.93e-05,53.2163,324.5928,81.6521,278.4583,0.00012707,1.736e-05,0.0,0 STARLINK-3238,1 49734U 21115L   23083.09987593  .00001736  00000-0  12707-3 0  9990,2 49734  53.2163 324.5928 0000993  81.6521 278.4583 15.08848557 73363,6917.854,95.437,540.406,539.032,0.0
49734.0,STARLINK-3238,PAYLOAD,2023-03-24 23:03:49,15.08852957,0.0001056,53.2148,320.7314,97.6676,262.4437,0.00021124,3.077e-05,0.0,0 STARLINK-3238,1 49734U 21115L   23083.96099066  .00003077  00000-0  21124-3 0  9998,2 49734  53.2148 320.7314 0001056  97.6676 262.4437 15.08852957 72383,6917.841,95.437,540.436,538.975,0.0
49734.0,STARLINK-3238,PAYLOAD,2023-03-25 00:39:12,15.08860536,0.0001061,53.215,320.4305,83.3416,276.7697,0.00037493,5.688e-05,0.0,0 STARLINK-3238,1 49734U 21115L   23084.02722762  .00005688  00000-0  37493-3 0  9998,2 49734  53.2150 320.4305 0001061  83.3416 276.7697 15.08860536 73506,6917.818,95.436,540.417,538.949,0.0
49734.0,STARLINK-3238,PAYLOAD,2023-03-25 21:19:13,15.08875367,0.0001585,53.2155,316.5638,129.3767,230.7366,0.0008016,0.00012505,0.0,0 STARLINK-3238,1 49734U 21115L   23084.88834701  .00012505  00000-0  80160-3 0  9994,2 49734  53.2155 316.5638 0001585 129.3767 230.7366 15.08875367 73632,6917.772,95.435,540.734,538.541,0.0
49734.0,STARLINK-3238,PAYLOAD,2023-03-26 21:10:01,15.08822706,0.0001808,53.2162,312.1039,106.5386,253.5805,-0.00033571,-5.624e-05,0.0,0 STARLINK-3238,1 49734U 21115L   23085.88196338 -.00005624  00000-0 -33571-3 0  9992,2 49734  53.2162 312.1039 0001808 106.5386 253.5805 15.08822706 73785,6917.933,95.439,541.049,538.547,0.0
49734.0,STARLINK-3238,PAYLOAD,2023-03-26 22:45:25,15.08822269,0.0001172,53.2167,311.8069,99.1759,260.9366,-0.00034067,-5.703e-05,0.0,0 STARLINK-3238,1 49734U 21115L   23085.94820741 -.00005703  00000-0 -34067-3 0  9990,2 49734  53.2167 311.8069 0001172  99.1759 260.9366 15.08822269 72680,6917.935,95.439,540.61,538.989,0.0
49734.0,STARLINK-3238,PAYLOAD,2023-03-27 00:20:48,15.08821809,0.0001165,53.2162,311.5099,102.0351,258.0772,-0.00031046,-5.223e-05,0.0,0 STARLINK-3238,1 49734U 21115L   23086.01444856 -.00005223  00000-0 -31046-3 0  9999,2 49734  53.2162 311.5099 0001165 102.0351 258.0772 15.08821809 72698,6917.936,95.439,540.607,538.995,0.0
49734.0,STARLINK-3238,PAYLOAD,2023-03-27 21:00:49,15.0884167,0.0001114,53.2161,307.6448,113.6193,246.4916,-0.00018184,-3.181e-05,0.0,0 STARLINK-3238,1 49734U 21115L   23086.87556828 -.00003181  00000-0 -18184-3 0  9995,2 49734  53.2161 307.6448 0001114 113.6193 246.4916 15.08841670 73934,6917.875,95.437,540.511,538.97,0.0
49734.0,STARLINK-3238,PAYLOAD,2023-03-28 00:11:34,15.08842772,0.0001332,53.2163,307.0462,121.8586,238.2536,-0.000135,-2.436e-05,0.0,0 STARLINK-3238,1 49734U 21115L   23087.00804377 -.00002436  00000-0 -13500-3 0  9995,2 49734  53.2163 307.0462 0001332 121.8586 238.2536 15.08842772 72845,6917.872,95.437,540.658,538.815,0.0
49734.0,STARLINK-3238,PAYLOAD,2023-03-28 20:51:36,15.08847481,8.4e-05,53.2168,303.1832,99.1891,260.9196,0.0004388,6.704e-05,0.0,0 STARLINK-3238,1 49734U 21115L   23087.86917178  .00006704  00000-0  43880-3 0  9997,2 49734  53.2168 303.1832 0000840  99.1891 260.9196 15.08847481 72977,6917.858,95.437,540.304,539.141,0.0
49734.0,STARLINK-3238,PAYLOAD,2023-03-29 00:02:22,15.08854976,8.22e-05,53.2164,302.5885,93.3624,266.7462,0.00056552,8.728e-05,0.0,0 STARLINK-3238,1 49734U 21115L   23088.00164862  .00008728  00000-0  56552-3 0  9996,2 49734  53.2164 302.5885 0000822  93.3624 266.7462 15.08854976 74108,6917.835,95.437,540.268,539.131,0.0
49734.0,STARLINK-3238,PAYLOAD,2023-03-29 20:42:23,15.08851691,9.16e-05,53.2156,298.7228,82.5737,277.5359,0.000194,2.802e-05,0.0,0 STARLINK-3238,1 49734U 21115L   23088.86276807  .00002802  00000-0  19400-3 0  9991,2 49734  53.2156 298.7228 0000916  82.5737 277.5359 15.08851691 74235,6917.845,95.437,540.343,539.076,0.0
49734.0,STARLINK-3238,PAYLOAD,2023-03-30 20:33:09,15.08852853,8.81e-05,53.2158,294.2601,75.0295,285.0794,0.00010409,1.37e-05,0.0,0 STARLINK-3238,1 49734U 21115L   23089.85636340  .00001370  00000-0  10409-3 0  9992,2 49734  53.2158 294.2601 0000881  75.0295 285.0794 15.08852853 74384,6917.841,95.437,540.316,539.097,0.0
49734.0,STARLINK-3238,PAYLOAD,2023-03-31 14:02:24,15.08837842,7.35e-05,53.2159,290.9921,79.3299,280.7776,-7.7237e-05,-1.517e-05,0.0,0 STARLINK-3238,1 49734U 21115L   23090.58500773 -.00001517  00000-0 -77237-4 0  9992,2 49734  53.2159 290.9921 0000735  79.3299 280.7776 15.08837842 74497,6917.887,95.438,540.26,539.244,0.0
49734.0,STARLINK-3238,PAYLOAD,2023-03-31 20:23:56,15.08849732,0.0001282,53.2158,289.8028,101.3753,258.7384,0.00016124,2.28e-05,0.0,0 STARLINK-3238,1 49734U 21115L   23090.84996322  .00002280  00000-0  16124-3 0  9993,2 49734  53.2158 289.8028 0001282 101.3753 258.7384 15.08849732 74536,6917.851,95.437,540.603,538.829,0.0
49734.0,STARLINK-3238,PAYLOAD,2023-03-31 23:34:43,15.08851019,0.0001055,53.2154,289.2061,91.7968,268.3145,0.00020322,2.949e-05,0.0,0 STARLINK-3238,1 49734U 21115L   23090.98244229  .00002949  00000-0  20322-3 0  9997,2 49734  53.2154 289.2061 0001055  91.7968 268.3145 15.08851019 73443,6917.847,95.437,540.442,538.982,0.0
49734.0,STARLINK-3238,PAYLOAD,2023-04-01 20:14:44,15.08830543,0.0001014,53.2156,285.3417,94.2506,265.8602,-0.00011868,-2.176e-05,0.0,0 STARLINK-3238,1 49734U 21115L   23091.84357401 -.00002176  00000-0 -11868-3 0  9999,2 49734  53.2156 285.3417 0001014  94.2506 265.8602 15.08830543 74684,6917.909,95.438,540.476,539.073,0.0
49734.0,STARLINK-3238,PAYLOAD,2023-04-02 12:08:36,15.08837758,9.28e-05,53.2157,282.3668,79.8595,280.2501,0.00018706,2.69e-05,0.0,0 STARLINK-3238,1 49734U 21115L   23092.50597563  .00002690  00000-0  18706-3 0  9995,2 49734  53.2157 282.3668 0000928  79.8595 280.2501 15.08837758 73672,6917.887,95.438,540.394,539.11,0.0
49734.0,STARLINK-3238,PAYLOAD,2023-04-02 20:05:31,15.08850856,0.0001006,53.2156,280.8808,79.3018,280.8087,0.00050417,7.747e-05,0.0,0 STARLINK-3238,1 49734U 21115L   23092.83717224  .00007747  00000-0  50417-3 0  9992,2 49734  53.2156 280.8808 0001006  79.3018 280.8087 15.08850856 74831,6917.847,95.437,540.408,539.016,0.0
49734.0,STARLINK-3238,PAYLOAD,2023-04-03 05:37:50,15.08840351,0.0001025,53.2149,279.0976,81.4104,278.7004,0.00070329,0.00010923,0.0,0 STARLINK-3238,1 49734U 21115L   23093.23461564  .00010923  00000-0  70329-3 0  9994,2 49734  53.2149 279.0976 0001025  81.4104 278.7004 15.08840351 74890,6917.879,95.438,540.453,539.035,0.0
49734.0,STARLINK-3238,PAYLOAD,2023-04-03 11:59:23,15.08846462,0.0001122,53.2152,277.9081,78.6936,281.4183,0.00031025,4.654e-05,0.0,0 STARLINK-3238,1 49734U 21115L   23093.49957310  .00004654  00000-0  31025-3 0  9995,2 49734  53.2152 277.9081 0001122  78.6936 281.4183 15.08846462 73827,6917.861,95.437,540.502,538.949,0.0
49734.0,STARLINK-3238,PAYLOAD,2023-04-03 18:20:55,15.0884097,0.0001215,53.2165,276.7185,79.9015,280.2114,0.0001815,2.602e-05,0.0,0 STARLINK-3238,1 49734U 21115L   23093.76453598  .00002602  00000-0  18150-3 0  9999,2 49734  53.2165 276.7185 0001215  79.9015 280.2114 15.08840970 73861,6917.877,95.437,540.583,538.902,0.0
